CUPID                   
1 49264U 21088E   26068.66993977  .00009454  00000+0  38662-3 0  9991
2 49264  97.3985 131.0756 0013746  59.9938 300.2662 15.24473777245013
STARLINK-30824          
1 58176U 23167B   26068.36077985  .00003121  00000+0  12601-3 0  9992
2 58176  43.0003 145.3645 0001030 257.0695 103.0041 15.26728143130939
